FENGYUN 1C DEB          
1 36180U 99025DTD 17344.23065084  .00000207  00000-0  10277-3 0  9999
2 36180  98.3726 145.8181 0231425 171.7114 188.7988 14.13182002508972
